OBJECT_NAME,OBJECT_ID,EPOCH,MEAN_MOTION,ECCENTRICITY,INCLINATION,RA_OF_ASC_NODE,ARG_OF_PERICENTER,MEAN_ANOMALY,EPHEMERIS_TYPE,CLASSIFICATION_TYPE,NORAD_CAT_ID,ELEMENT_SET_NO,REV_AT_EPOCH,BSTAR,MEAN_MOTION_DOT,MEAN_MOTION_DDOT
ONEWEB-0365,2021-090N,2026-07-21T07:18:07.909344,13.19726971,.00021055,87.9191,298.1756,101.4635,258.6735,0,U,49291,999,23092,.18622522E-3,.88E-6,0
ONEWEB-0366,2021-090P,2026-07-21T11:03:11.471616,13.14502499,.00020004,87.8964,282.8781,98.2060,261.9297,0,U,49292,999,23206,.7956999E-4,.42E-6,0
ONEWEB-0367,2021-090Q,2026-07-21T11:32:35.975616,13.20773879,.00022165,87.9177,267.6074,99.9346,260.2037,0,U,49293,999,23435,-.92972565E-4,-.25E-6,0
ONEWEB-0368,2021-090R,2026-07-21T10:55:03.380736,13.20772145,.00018042,87.9167,267.6189,117.9868,242.1448,0,U,49294,999,23550,.15112204E-3,.74E-6,0
ONEWEB-0369,2021-090S,2026-07-21T12:38:50.150112,13.19727214,.00020233,87.9182,298.1363,102.6676,257.4683,0,U,49295,999,23094,.27781106E-3,.124E-5,0
ONEWEB-0370,2021-090T,2026-07-21T09:56:51.634464,13.20773043,.00022575,87.9179,267.6197,91.9831,268.1561,0,U,49296,999,23438,.24527123E-4,.23E-6,0
ONEWEB-0371,2021-090U,2026-07-21T07:22:41.208096,13.19725420,.00020933,87.9191,298.1748,100.6824,259.4545,0,U,49297,999,23095,.11920034E-3,.61E-6,0
ONEWEB-0372,2021-090V,2026-07-21T11:31:12.435456,13.20769805,.00020687,87.9181,267.6087,98.5149,261.6219,0,U,49298,999,23436,-.58260931E-4,-.11E-6,0
ONEWEB-0373,2021-090W,2026-07-21T10:18:40.041504,13.20770159,.00020159,87.9175,267.6182,94.9020,265.2343,0,U,49299,999,23554,.28891448E-4,.25E-6,0
ONEWEB-0374,2021-090X,2026-07-21T05:16:04.361952,13.14503604,.00014641,87.8966,282.9180,92.7560,267.3738,0,U,49300,999,23203,.72445303E-3,.281E-5,0
ONEWEB-0375,2021-090Y,2026-07-21T10:01:41.977344,13.20770862,.0001551,87.9180,267.6129,88.2951,271.8360,0,U,49301,999,23504,.12265217E-4,.18E-6,0
ONEWEB-0376,2021-090Z,2026-07-21T07:20:24.059328,13.19723948,.00021171,87.9190,298.1749,104.9067,255.2300,0,U,49302,999,23095,.1652996E-3,.79E-6,0
ONEWEB-0377,2021-090AA,2026-07-21T06:04:18.896736,13.20769763,.00017409,87.9178,267.6477,95.4609,264.6723,0,U,49303,999,23501,-.7027383E-4,-.16E-6,0
ONEWEB-0378,2021-090AB,2026-07-21T04:44:20.761728,13.20772172,.00019175,87.9173,267.6620,98.2727,261.8624,0,U,49304,999,23427,.11421169E-3,.59E-6,0
ONEWEB-0379,2021-090AC,2026-07-21T12:27:40.436928,13.14502974,.00018727,87.8964,282.8682,99.8824,260.2517,0,U,49305,999,23207,.51465191E-3,.204E-5,0
ONEWEB-0380,2021-090AD,2026-07-21T12:43:23.151648,13.19727092,.00019413,87.9182,298.1332,94.9474,265.1881,0,U,49306,999,23095,.14080644E-3,.69E-6,0
ONEWEB-0381,2021-090AE,2026-07-21T15:04:43.338432,13.20770172,.00017823,87.9181,267.5779,95.8130,264.3206,0,U,49307,999,23437,-.1042512E-3,-.29E-6,0
ONEWEB-0382,2021-090AF,2026-07-21T11:07:10.178400,13.20772335,.000171,87.9177,267.6042,98.6570,261.4757,0,U,49308,999,23434,-.13628283E-3,-.42E-6,0
ONEWEB-0383,2021-090AG,2026-07-21T06:49:42.478752,13.14502978,.00018763,87.8966,282.9074,102.3720,257.7620,0,U,49309,999,23207,.42810538E-3,.172E-5,0
ONEWEB-0384,2021-090AH,2026-07-21T10:49:14.663424,13.20814596,.00015928,87.9178,267.6507,103.1365,256.9947,0,U,49310,999,23435,.29749721E-4,.25E-6,0
ONEWEB-0385,2021-090AJ,2026-07-21T10:57:27.882144,13.20770953,.00018676,87.9177,267.6112,96.9537,263.1809,0,U,49311,999,23432,.47572112E-4,.32E-6,0
ONEWEB-0386,2021-090AK,2026-07-21T05:54:25.367616,13.20769568,.00017514,87.9187,267.6459,98.7198,261.4133,0,U,49312,999,23431,-.74416449E-4,-.17E-6,0
ONEWEB-0387,2021-090AL,2026-07-21T10:59:53.211264,13.20771547,.0001861,87.9167,267.6206,87.9509,272.1837,0,U,49313,999,23434,.97197572E-4,.53E-6,0
ONEWEB-0388,2021-090AM,2026-07-21T12:36:34.048512,13.19724697,.00019009,87.9183,298.1324,100.5017,259.6330,0,U,49314,999,23094,.12454678E-3,.63E-6,0
ONEWEB-0389,2021-132A,2026-07-21T10:42:07.507872,13.17647939,.00016161,87.9154,359.0529,84.0720,276.0596,0,U,50469,999,22259,.17703233E-3,.82E-6,0
ONEWEB-0390,2021-132B,2026-07-21T08:55:12.447840,13.17648329,.00020777,87.9151,359.0690,90.0869,270.0501,0,U,50470,999,22258,.12931183E-3,.63E-6,0
ONEWEB-0391,2021-132C,2026-07-21T08:57:38.165760,13.17648001,.00017752,87.9155,359.0785,68.0456,292.0864,0,U,50471,999,22258,.19577076E-3,.89E-6,0
ONEWEB-0392,2021-132D,2026-07-21T09:41:22.781760,13.17647841,.00016545,87.9161,359.0436,83.1236,277.0084,0,U,50472,999,22262,.76843415E-4,.43E-6,0
ONEWEB-0393,2021-132E,2026-07-21T09:06:10.086624,13.17648114,.00017431,87.9153,359.0625,90.0379,270.0953,0,U,50473,999,22261,.16676682E-3,.78E-6,0
ONEWEB-0394,2021-132F,2026-07-21T14:55:34.041792,13.18686037,.00017712,87.9201,328.5965,99.9951,260.1381,0,U,50474,999,22613,.18873918E-3,.87E-6,0
