{"epoch":1784710044,"count":18256,"objects":[{"id":"49291","name":"ONEWEB-0365","type":"PAYLOAD","l1":"1 49291U 21090N   26202.30425821  .00000088  00000-0  18623-3 0  9993","l2":"2 49291  87.9191 298.1756 0002106 101.4635 258.6735 13.19726971230927"},{"id":"49292","name":"ONEWEB-0366","type":"PAYLOAD","l1":"1 49292U 21090P   26202.46054944  .00000042  00000-0  79570-4 0  9994","l2":"2 49292  87.8964 282.8781 0002000  98.2060 261.9297 13.14502499232060"},{"id":"49293","name":"ONEWEB-0367","type":"PAYLOAD","l1":"1 49293U 21090Q   26202.48097194 -.00000025  00000-0 -92973-4 0  9996","l2":"2 49293  87.9177 267.6074 0002217  99.9346 260.2037 13.20773879234356"},{"id":"49294","name":"ONEWEB-0368","type":"PAYLOAD","l1":"1 49294U 21090R   26202.45490024  .00000074  00000-0  15112-3 0  9994","l2":"2 49294  87.9167 267.6189 0001804 117.9868 242.1448 13.20772145235502"},{"id":"49295","name":"ONEWEB-0369","type":"PAYLOAD","l1":"1 49295U 21090S   26202.52696933  .00000124  00000-0  27781-3 0  9991","l2":"2 49295  87.9182 298.1363 0002023 102.6676 257.4683 13.19727214230943"},{"id":"49296","name":"ONEWEB-0370","type":"PAYLOAD","l1":"1 49296U 21090T   26202.41448651  .00000023  00000-0  24527-4 0  9996","l2":"2 49296  87.9179 267.6197 0002257  91.9831 268.1561 13.20773043234387"},{"id":"49297","name":"ONEWEB-0371","type":"PAYLOAD","l1":"1 49297U 21090U   26202.30742139  .00000061  00000-0  11920-3 0  9997","l2":"2 49297  87.9191 298.1748 0002093 100.6824 259.4545 13.19725420230959"},{"id":"49298","name":"ONEWEB-0372","type":"PAYLOAD","l1":"1 49298U 21090V   26202.48000504 -.00000011  00000-0 -58261-4 0  9997","l2":"2 49298  87.9181 267.6087 0002069  98.5149 261.6219 13.20769805234363"},{"id":"49299","name":"ONEWEB-0373","type":"PAYLOAD","l1":"1 49299U 21090W   26202.42963011  .00000025  00000-0  28891-4 0  9992","l2":"2 49299  87.9175 267.6182 0002016  94.9020 265.2343 13.20770159235546"},{"id":"49300","name":"ONEWEB-0374","type":"PAYLOAD","l1":"1 49300U 21090X   26202.21949493  .00000281  00000-0  72445-3 0  9997","l2":"2 49300  87.8966 282.9180 0001464  92.7560 267.3738 13.14503604232039"},{"id":"49301","name":"ONEWEB-0375","type":"PAYLOAD","l1":"1 49301U 21090Y   26202.41784696  .00000018  00000-0  12265-4 0  9995","l2":"2 49301  87.9180 267.6129 0001551  88.2951 271.8360 13.20770862235047"},{"id":"49302","name":"ONEWEB-0376","type":"PAYLOAD","l1":"1 49302U 21090Z   26202.30583402  .00000079  00000-0  16530-3 0  9991","l2":"2 49302  87.9190 298.1749 0002117 104.9067 255.2300 13.19723948230955"},{"id":"49303","name":"ONEWEB-0377","type":"PAYLOAD","l1":"1 49303U 21090AA  26202.25299649 -.00000016  00000-0 -70274-4 0  9992","l2":"2 49303  87.9178 267.6477 0001741  95.4609 264.6723 13.20769763235011"},{"id":"49304","name":"ONEWEB-0378","type":"PAYLOAD","l1":"1 49304U 21090AB  26202.19746252  .00000059  00000-0  11421-3 0  9996","l2":"2 49304  87.9173 267.6620 0001918  98.2727 261.8624 13.20772172234279"},{"id":"49305","name":"ONEWEB-0379","type":"PAYLOAD","l1":"1 49305U 21090AC  26202.51921802  .00000204  00000-0  51465-3 0  9993","l2":"2 49305  87.8964 282.8682 0001873  99.8824 260.2517 13.14502974232073"},{"id":"49306","name":"ONEWEB-0380","type":"PAYLOAD","l1":"1 49306U 21090AD  26202.53012907  .00000069  00000-0  14081-3 0  9995","l2":"2 49306  87.9182 298.1332 0001941  94.9474 265.1881 13.19727092230950"},{"id":"49307","name":"ONEWEB-0381","type":"PAYLOAD","l1":"1 49307U 21090AE  26202.62827938 -.00000029  00000-0 -10425-3 0  9990","l2":"2 49307  87.9181 267.5779 0001782  95.8130 264.3206 13.20770172234378"},{"id":"49308","name":"ONEWEB-0382","type":"PAYLOAD","l1":"1 49308U 21090AF  26202.46331225 -.00000042  00000-0 -13628-3 0  9995","l2":"2 49308  87.9177 267.6042 0001710  98.6570 261.4757 13.20772335234347"},{"id":"49309","name":"ONEWEB-0383","type":"PAYLOAD","l1":"1 49309U 21090AG  26202.28451943  .00000172  00000-0  42811-3 0  9994","l2":"2 49309  87.8966 282.9074 0001876 102.3720 257.7620 13.14502978232073"},{"id":"49310","name":"ONEWEB-0384","type":"PAYLOAD","l1":"1 49310U 21090AH  26202.45086416  .00000025  00000-0  29750-4 0  9999","l2":"2 49310  87.9178 267.6507 0001593 103.1365 256.9947 13.20814596234357"},{"id":"49311","name":"ONEWEB-0385","type":"PAYLOAD","l1":"1 49311U 21090AJ  26202.45657271  .00000032  00000-0  47572-4 0  9993","l2":"2 49311  87.9177 267.6112 0001868  96.9537 263.1809 13.20770953234326"},{"id":"49312","name":"ONEWEB-0386","type":"PAYLOAD","l1":"1 49312U 21090AK  26202.24612694 -.00000017  00000-0 -74416-4 0  9993","l2":"2 49312  87.9187 267.6459 0001751  98.7198 261.4133 13.20769568234316"},{"id":"49313","name":"ONEWEB-0387","type":"PAYLOAD","l1":"1 49313U 21090AL  26202.45825476  .00000053  00000-0  97198-4 0  9991","l2":"2 49313  87.9167 267.6206 0001861  87.9509 272.1837 13.20771547234346"},{"id":"49314","name":"ONEWEB-0388","type":"PAYLOAD","l1":"1 49314U 21090AM  26202.52539408  .00000063  00000-0  12455-3 0  9990","l2":"2 49314  87.9183 298.1324 0001901 100.5017 259.6330 13.19724697230948"},{"id":"50469","name":"ONEWEB-0389","type":"PAYLOAD","l1":"1 50469U 21132A   26202.44592023  .00000082  00000-0  17703-3 0  9995","l2":"2 50469  87.9154 359.0529 0001616  84.0720 276.0596 13.17647939222593"},{"id":"50470","name":"ONEWEB-0390","type":"PAYLOAD","l1":"1 50470U 21132B   26202.37167185  .00000063  00000-0  12931-3 0  9993","l2":"2 50470  87.9151 359.0690 0002078  90.0869 270.0501 13.17648329222588"},{"id":"50471","name":"ONEWEB-0391","type":"PAYLOAD","l1":"1 50471U 21132C   26202.37335840  .00000089  00000-0  19577-3 0  9990","l2":"2 50471  87.9155 359.0785 0001775  68.0456 292.0864 13.17648001222581"},{"id":"50472","name":"ONEWEB-0392","type":"PAYLOAD","l1":"1 50472U 21132D   26202.40373590  .00000043  00000-0  76843-4 0  9999","l2":"2 50472  87.9161 359.0436 0001654  83.1236 277.0084 13.17647841222625"},{"id":"50473","name":"ONEWEB-0393","type":"PAYLOAD","l1":"1 50473U 21132E   26202.37928341  .00000078  00000-0  16677-3 0  9992","l2":"2 50473  87.9153 359.0625 0001743  90.0379 270.0953 13.17648114222612"},{"id":"50474","name":"ONEWEB-0394","type":"PAYLOAD","l1":"1 50474U 21132F   26202.62192178  .00000087  00000-0  18874-3 0  9993","l2":"2 50474  87.9201 328.5965 0001771  99.9951 260.1381 13.18686037226133"}]}